HULIANWANG DIGUI-44     
1 65047U 25162E   26193.76876595 -.00000101  00000+0  50133-4 0  9990
2 65047  49.9997 173.9415 0001434 320.8137  39.2632 13.29318497 46773
HULIANWANG DIGUI-45     
1 65048U 25162F   26193.76055571 -.00000105  00000+0  41573-4 0  9996
2 65048  50.0027 173.9818 0000284 301.1289  58.9555 13.29327097 46767
HULIANWANG DIGUI-46     
1 65049U 25162G   26193.82740395 -.00000106  00000+0  39657-4 0  9990
2 65049  50.0045 173.7186 0000261 298.5718  61.5128 13.29326912 46777
HULIANWANG DIGUI-47     
1 65050U 25162H   26193.81905190 -.00000109  00000+0  32737-4 0  9992
2 65050  50.0008 173.5786 0000285 291.3507  68.7334 13.29326543 46773
HULIANWANG DIGUI-48     
1 65051U 25162J   26193.88587431 -.00000112  00000+0  25458-4 0  9990
2 65051  50.0019 173.2923 0000288 300.2093  59.8751 13.29327287 46780
HULIANWANG DIGUI-49     
1 65106U 25168A   26193.64733997 -.00000083  00000+0  88392-4 0  9994
2 65106  50.0013 234.6526 0008341 183.4320 176.6496 13.29321791 46078
HULIANWANG DIGUI-50     
1 65107U 25168B   26193.63893573 -.00000073  00000+0  10911-3 0  9991
2 65107  49.9983 234.5233 0008943 169.3639 190.7423 13.29321497 46070
HULIANWANG DIGUI-51     
1 65108U 25168C   26193.85577602 -.00000071  00000+0  11350-3 0  9994
2 65108  50.0020 233.7739 0010242 169.1379 190.9716 13.29324696 46107
HULIANWANG DIGUI-52     
1 65109U 25168D   26193.84767345 -.00000067  00000+0  12364-3 0  9990
2 65109  50.0014 233.7081 0010477 181.6561 178.4277 13.29322642 46105
HULIANWANG DIGUI-53     
1 65110U 25168E   26193.68879157 -.00000069  00000+0  11804-3 0  9999
2 65110  50.0021 234.2325 0008978 172.2409 187.8603 13.29326069 46083
HULIANWANG DIGUI-54     
1 65111U 25168F   26193.81428833 -.00000078  00000+0  98999-4 0  9997
2 65111  49.9972 233.4253 0010795 176.8984 183.1957 13.29326213 46100
HULIANWANG DIGUI-55     
1 65112U 25168G   26193.68052912 -.00000073  00000+0  10923-3 0  9999
2 65112  49.9977 234.0642 0011857 172.5104 187.5947 13.29322467 46083
HULIANWANG DIGUI-56     
1 65113U 25168H   26193.67224275 -.00000080  00000+0  95566-4 0  9997
2 65113  49.9969 233.9976 0012010 192.2674 167.7907 13.29321954 46082
HULIANWANG DIGUI-57     
1 65114U 25168J   26193.65560392 -.00000069  00000+0  11805-3 0  9999
2 65114  49.9997 233.9937 0009650 184.4005 175.6784 13.29326170 46095
HULIANWANG DIGUI-58     
1 65164U 25174A   26193.80181927  .00000046  00000+0  73311-4 0  9996
2 65164  86.4948 243.3618 0001793 100.0933 260.0403 13.24407288 44187
HULIANWANG DIGUI-59     
1 65165U 25174B   26193.80941216  .00000040  00000+0  58381-4 0  9996
2 65165  86.4909 243.2401 0001892  99.9231 260.2117 13.24407353 44188
