{"fetched_at":"2026-07-13T05:28:12.237Z","source":"https://celestrak.org/NORAD/elements/gp.php?NAME=HULIANWANG&FORMAT=JSON","constellation":"guowang","records":[{"OBJECT_NAME":"HULIANWANG DIGUI-44","OBJECT_ID":"2025-162E","EPOCH":"2026-07-12T18:27:01.378080","CLASSIFICATION_TYPE":"U","MEAN_MOTION":13.29318497,"ECCENTRICITY":0.0001434,"INCLINATION":49.9997,"RA_OF_ASC_NODE":173.9415,"ARG_OF_PERICENTER":320.8137,"MEAN_ANOMALY":39.2632,"EPHEMERIS_TYPE":0,"NORAD_CAT_ID":65047,"ELEMENT_SET_NO":999,"REV_AT_EPOCH":4677,"BSTAR":0.000050133,"MEAN_MOTION_DOT":-0.00000101,"MEAN_MOTION_DDOT":0},{"OBJECT_NAME":"HULIANWANG DIGUI-45","OBJECT_ID":"2025-162F","EPOCH":"2026-07-12T18:15:12.013344","CLASSIFICATION_TYPE":"U","MEAN_MOTION":13.29327097,"ECCENTRICITY":0.0000284,"INCLINATION":50.0027,"RA_OF_ASC_NODE":173.9818,"ARG_OF_PERICENTER":301.1289,"MEAN_ANOMALY":58.9555,"EPHEMERIS_TYPE":0,"NORAD_CAT_ID":65048,"ELEMENT_SET_NO":999,"REV_AT_EPOCH":4676,"BSTAR":0.000041573,"MEAN_MOTION_DOT":-0.00000105,"MEAN_MOTION_DDOT":0},{"OBJECT_NAME":"HULIANWANG DIGUI-46","OBJECT_ID":"2025-162G","EPOCH":"2026-07-12T19:51:27.701280","CLASSIFICATION_TYPE":"U","MEAN_MOTION":13.29326912,"ECCENTRICITY":0.0000261,"INCLINATION":50.0045,"RA_OF_ASC_NODE":173.7186,"ARG_OF_PERICENTER":298.5718,"MEAN_ANOMALY":61.5128,"EPHEMERIS_TYPE":0,"NORAD_CAT_ID":65049,"ELEMENT_SET_NO":999,"REV_AT_EPOCH":4677,"BSTAR":0.000039657,"MEAN_MOTION_DOT":-0.00000106,"MEAN_MOTION_DDOT":0},{"OBJECT_NAME":"HULIANWANG DIGUI-47","OBJECT_ID":"2025-162H","EPOCH":"2026-07-12T19:39:26.084160","CLASSIFICATION_TYPE":"U","MEAN_MOTION":13.29326543,"ECCENTRICITY":0.0000285,"INCLINATION":50.0008,"RA_OF_ASC_NODE":173.5786,"ARG_OF_PERICENTER":291.3507,"MEAN_ANOMALY":68.7334,"EPHEMERIS_TYPE":0,"NORAD_CAT_ID":65050,"ELEMENT_SET_NO":999,"REV_AT_EPOCH":4677,"BSTAR":0.000032737,"MEAN_MOTION_DOT":-0.00000109,"MEAN_MOTION_DDOT":0},{"OBJECT_NAME":"HULIANWANG DIGUI-48","OBJECT_ID":"2025-162J","EPOCH":"2026-07-12T21:15:39.540384","CLASSIFICATION_TYPE":"U","MEAN_MOTION":13.29327287,"ECCENTRICITY":0.0000288,"INCLINATION":50.0019,"RA_OF_ASC_NODE":173.2923,"ARG_OF_PERICENTER":300.2093,"MEAN_ANOMALY":59.8751,"EPHEMERIS_TYPE":0,"NORAD_CAT_ID":65051,"ELEMENT_SET_NO":999,"REV_AT_EPOCH":4678,"BSTAR":0.000025458,"MEAN_MOTION_DOT":-0.00000112,"MEAN_MOTION_DDOT":0},{"OBJECT_NAME":"HULIANWANG DIGUI-49","OBJECT_ID":"2025-168A","EPOCH":"2026-07-12T15:32:10.173408","CLASSIFICATION_TYPE":"U","MEAN_MOTION":13.29321791,"ECCENTRICITY":0.0008341,"INCLINATION":50.0013,"RA_OF_ASC_NODE":234.6526,"ARG_OF_PERICENTER":183.432,"MEAN_ANOMALY":176.6496,"EPHEMERIS_TYPE":0,"NORAD_CAT_ID":65106,"ELEMENT_SET_NO":999,"REV_AT_EPOCH":4607,"BSTAR":0.000088392,"MEAN_MOTION_DOT":-8.3e-7,"MEAN_MOTION_DDOT":0},{"OBJECT_NAME":"HULIANWANG DIGUI-50","OBJECT_ID":"2025-168B","EPOCH":"2026-07-12T15:20:04.047072","CLASSIFICATION_TYPE":"U","MEAN_MOTION":13.29321497,"ECCENTRICITY":0.0008943,"INCLINATION":49.9983,"RA_OF_ASC_NODE":234.5233,"ARG_OF_PERICENTER":169.3639,"MEAN_ANOMALY":190.7423,"EPHEMERIS_TYPE":0,"NORAD_CAT_ID":65107,"ELEMENT_SET_NO":999,"REV_AT_EPOCH":4607,"BSTAR":0.00010911,"MEAN_MOTION_DOT":-7.3e-7,"MEAN_MOTION_DDOT":0},{"OBJECT_NAME":"HULIANWANG DIGUI-51","OBJECT_ID":"2025-168C","EPOCH":"2026-07-12T20:32:19.048128","CLASSIFICATION_TYPE":"U","MEAN_MOTION":13.29324696,"ECCENTRICITY":0.0010242,"INCLINATION":50.002,"RA_OF_ASC_NODE":233.7739,"ARG_OF_PERICENTER":169.1379,"MEAN_ANOMALY":190.9716,"EPHEMERIS_TYPE":0,"NORAD_CAT_ID":65108,"ELEMENT_SET_NO":999,"REV_AT_EPOCH":4610,"BSTAR":0.0001135,"MEAN_MOTION_DOT":-7.1e-7,"MEAN_MOTION_DDOT":0},{"OBJECT_NAME":"HULIANWANG DIGUI-52","OBJECT_ID":"2025-168D","EPOCH":"2026-07-12T20:20:38.986080","CLASSIFICATION_TYPE":"U","MEAN_MOTION":13.29322642,"ECCENTRICITY":0.0010477,"INCLINATION":50.0014,"RA_OF_ASC_NODE":233.7081,"ARG_OF_PERICENTER":181.6561,"MEAN_ANOMALY":178.4277,"EPHEMERIS_TYPE":0,"NORAD_CAT_ID":65109,"ELEMENT_SET_NO":999,"REV_AT_EPOCH":4610,"BSTAR":0.00012364,"MEAN_MOTION_DOT":-6.7e-7,"MEAN_MOTION_DDOT":0},{"OBJECT_NAME":"HULIANWANG DIGUI-53","OBJECT_ID":"2025-168E","EPOCH":"2026-07-12T16:31:51.591648","CLASSIFICATION_TYPE":"U","MEAN_MOTION":13.29326069,"ECCENTRICITY":0.0008978,"INCLINATION":50.0021,"RA_OF_ASC_NODE":234.2325,"ARG_OF_PERICENTER":172.2409,"MEAN_ANOMALY":187.8603,"EPHEMERIS_TYPE":0,"NORAD_CAT_ID":65110,"ELEMENT_SET_NO":999,"REV_AT_EPOCH":4608,"BSTAR":0.00011804,"MEAN_MOTION_DOT":-6.9e-7,"MEAN_MOTION_DDOT":0},{"OBJECT_NAME":"HULIANWANG DIGUI-54","OBJECT_ID":"2025-168F","EPOCH":"2026-07-12T19:32:34.511712","CLASSIFICATION_TYPE":"U","MEAN_MOTION":13.29326213,"ECCENTRICITY":0.0010795,"INCLINATION":49.9972,"RA_OF_ASC_NODE":233.4253,"ARG_OF_PERICENTER":176.8984,"MEAN_ANOMALY":183.1957,"EPHEMERIS_TYPE":0,"NORAD_CAT_ID":65111,"ELEMENT_SET_NO":999,"REV_AT_EPOCH":4610,"BSTAR":0.000098999,"MEAN_MOTION_DOT":-7.8e-7,"MEAN_MOTION_DDOT":0},{"OBJECT_NAME":"HULIANWANG DIGUI-55","OBJECT_ID":"2025-168G","EPOCH":"2026-07-12T16:19:57.715968","CLASSIFICATION_TYPE":"U","MEAN_MOTION":13.29322467,"ECCENTRICITY":0.0011857,"INCLINATION":49.9977,"RA_OF_ASC_NODE":234.0642,"ARG_OF_PERICENTER":172.5104,"MEAN_ANOMALY":187.5947,"EPHEMERIS_TYPE":0,"NORAD_CAT_ID":65112,"ELEMENT_SET_NO":999,"REV_AT_EPOCH":4608,"BSTAR":0.00010923,"MEAN_MOTION_DOT":-7.3e-7,"MEAN_MOTION_DDOT":0},{"OBJECT_NAME":"HULIANWANG DIGUI-56","OBJECT_ID":"2025-168H","EPOCH":"2026-07-12T16:08:01.773600","CLASSIFICATION_TYPE":"U","MEAN_MOTION":13.29321954,"ECCENTRICITY":0.001201,"INCLINATION":49.9969,"RA_OF_ASC_NODE":233.9976,"ARG_OF_PERICENTER":192.2674,"MEAN_ANOMALY":167.7907,"EPHEMERIS_TYPE":0,"NORAD_CAT_ID":65113,"ELEMENT_SET_NO":999,"REV_AT_EPOCH":4608,"BSTAR":0.000095566,"MEAN_MOTION_DOT":-8e-7,"MEAN_MOTION_DDOT":0},{"OBJECT_NAME":"HULIANWANG DIGUI-57","OBJECT_ID":"2025-168J","EPOCH":"2026-07-12T15:44:04.178688","CLASSIFICATION_TYPE":"U","MEAN_MOTION":13.2932617,"ECCENTRICITY":0.000965,"INCLINATION":49.9997,"RA_OF_ASC_NODE":233.9937,"ARG_OF_PERICENTER":184.4005,"MEAN_ANOMALY":175.6784,"EPHEMERIS_TYPE":0,"NORAD_CAT_ID":65114,"ELEMENT_SET_NO":999,"REV_AT_EPOCH":4609,"BSTAR":0.00011805,"MEAN_MOTION_DOT":-6.9e-7,"MEAN_MOTION_DDOT":0},{"OBJECT_NAME":"HULIANWANG DIGUI-58","OBJECT_ID":"2025-174A","EPOCH":"2026-07-12T19:14:37.184928","CLASSIFICATION_TYPE":"U","MEAN_MOTION":13.24407288,"ECCENTRICITY":0.0001793,"INCLINATION":86.4948,"RA_OF_ASC_NODE":243.3618,"ARG_OF_PERICENTER":100.0933,"MEAN_ANOMALY":260.0403,"EPHEMERIS_TYPE":0,"NORAD_CAT_ID":65164,"ELEMENT_SET_NO":999,"REV_AT_EPOCH":4418,"BSTAR":0.000073311,"MEAN_MOTION_DOT":4.6e-7,"MEAN_MOTION_DDOT":0},{"OBJECT_NAME":"HULIANWANG DIGUI-59","OBJECT_ID":"2025-174B","EPOCH":"2026-07-12T19:25:33.210624","CLASSIFICATION_TYPE":"U","MEAN_MOTION":13.24407353,"ECCENTRICITY":0.0001892,"INCLINATION":86.4909,"RA_OF_ASC_NODE":243.2401,"ARG_OF_PERICENTER":99.9231,"MEAN_ANOMALY":260.2117,"EPHEMERIS_TYPE":0,"NORAD_CAT_ID":65165,"ELEMENT_SET_NO":999,"REV_AT_EPOCH":4418,"BSTAR":0.000058381,"MEAN_MOTION_DOT":4e-7,"MEAN_MOTION_DDOT":0}]}
